$$SOE
2460721.500000000, A.D. 2025-Feb-15 00:00:00.0000, 5.173370838808319E+08, 1.499776312838152E+08, -2.412547492305849E+07,
2460728.500000000, A.D. 2025-Feb-22 00:00:00.0000, 5.143929255013980E+08, 1.593790462345054E+08, -2.379894856573562E+07,
2460735.500000000, A.D. 2025-Mar-01 00:00:00.0000, 5.112893027748445E+08, 1.687310432248395E+08, -2.346504414893192E+07,
2460742.500000000, A.D. 2025-Mar-08 00:00:00.0000, 5.080270725433983E+08, 1.780306890759043E+08, -2.312386055703396E+07,
2460749.500000000, A.D. 2025-Mar-15 00:00:00.0000, 5.046071546932553E+08, 1.872750686838998E+08, -2.277549959174550E+07,
2460756.500000000, A.D. 2025-Mar-22 00:00:00.0000, 5.010305295708328E+08, 1.964612870315363E+08, -2.242006568048432E+07,
2460763.500000000, A.D. 2025-Mar-29 00:00:00.0000, 4.972982367186165E+08, 2.055864689356324E+08, -2.205766589112312E+07,
2460770.500000000, A.D. 2025-Apr-05 00:00:00.0000, 4.934113752555386E+08, 2.146477596666860E+08, -2.168841002679988E+07,
2460777.500000000, A.D. 2025-Apr-12 00:00:00.0000, 4.893711039757007E+08, 2.236423265427399E+08, -2.131241061595437E+07,
2460784.500000000, A.D. 2025-Apr-19 00:00:00.0000, 4.851786409787223E+08, 2.325673606147538E+08, -2.092978285277207E+07,
2460791.500000000, A.D. 2025-Apr-26 00:00:00.0000, 4.808352631040492E+08, 2.414200782389621E+08, -2.054064452987221E+07,
2460798.500000000, A.D. 2025-May-03 00:00:00.0000, 4.763423052836049E+08, 2.501977225539105E+08, -2.014511597239275E+07,
2460805.500000000, A.D. 2025-May-10 00:00:00.0000, 4.717011598421481E+08, 2.588975648693876E+08, -1.974331997563761E+07,
2460812.500000000, A.D. 2025-May-17 00:00:00.0000, 4.669132757829636E+08, 2.675169059248191E+08, -1.933538175321834E+07,
2460819.500000000, A.D. 2025-May-24 00:00:00.0000, 4.619801582339451E+08, 2.760530769612847E+08, -1.892142891627488E+07,
2460826.500000000, A.D. 2025-May-31 00:00:00.0000, 4.569033684731319E+08, 2.845034409164753E+08, -1.850159149686471E+07,
2460833.500000000, A.D. 2025-Jun-07 00:00:00.0000, 4.516845241333541E+08, 2.928653949452596E+08, -1.807600188041170E+07,
2460840.500000000, A.D. 2025-Jun-14 00:00:00.0000, 4.463252972214953E+08, 3.011363735978246E+08, -1.764479448479849E+07,
2460847.500000000, A.D. 2025-Jun-21 00:00:00.0000, 4.408274111711751E+08, 3.093138493839352E+08, -1.720810556508288E+07,
2460854.500000000, A.D. 2025-Jun-28 00:00:00.0000, 4.351926400595160E+08, 3.173953324865040E+08, -1.676607328673610E+07,
2460861.500000000, A.D. 2025-Jul-05 00:00:00.0000, 4.294228084722453E+08, 3.253783717790347E+08, -1.631883775212944E+07,
2460868.500000000, A.D. 2025-Jul-12 00:00:00.0000, 4.235197908272414E+08, 3.332605563404548E+08, -1.586654093684672E+07,
2460875.500000000, A.D. 2025-Jul-19 00:00:00.0000, 4.174855103477837E+08, 3.410395168912710E+08, -1.540932660023080E+07,
2460882.500000000, A.D. 2025-Jul-26 00:00:00.0000, 4.113219378972583E+08, 3.487129270932755E+08, -1.494734019407284E+07,
2460889.500000000, A.D. 2025-Aug-02 00:00:00.0000, 4.050310907423858E+08, 3.562785047330393E+08, -1.448072877368060E+07,
2460896.500000000, A.D. 2025-Aug-09 00:00:00.0000, 3.986150312697722E+08, 3.637340127731023E+08, -1.400964091463289E+07,
2460903.500000000, A.D. 2025-Aug-16 00:00:00.0000, 3.920758657338068E+08, 3.710772602064134E+08, -1.353422664735700E+07,
2460910.500000000, A.D. 2025-Aug-23 00:00:00.0000, 3.854157433296195E+08, 3.783061027298285E+08, -1.305463743489857E+07,
2460917.500000000, A.D. 2025-Aug-30 00:00:00.0000, 3.786368559215168E+08, 3.854184439503000E+08, -1.257102616559695E+07,
2460924.500000000, A.D. 2025-Sep-06 00:00:00.0000, 3.717414370099897E+08, 3.924122381233073E+08, -1.208354694869415E+07,
2460931.500000000, A.D. 2025-Sep-13 00:00:00.0000, 3.647317582676077E+08, 3.992854919410165E+08, -1.159235476225734E+07,
2460938.500000000, A.D. 2025-Sep-20 00:00:00.0000, 3.576101269202476E+08, 4.060362637271635E+08, -1.109760538789019E+07,
2460945.500000000, A.D. 2025-Sep-27 00:00:00.0000, 3.503788850356371E+08, 4.126626631498017E+08, -1.059945547508210E+07,
2460952.500000000, A.D. 2025-Oct-04 00:00:00.0000, 3.430404087043700E+08, 4.191628519900115E+08, -1.009806250611180E+07,
2460959.500000000, A.D. 2025-Oct-11 00:00:00.0000, 3.355971067413598E+08, 4.255350450231066E+08, -9.593584704263985E+06,
2460966.500000000, A.D. 2025-Oct-18 00:00:00.0000, 3.280514191931993E+08, 4.317775107377829E+08, -9.086180933853120E+06,
2460973.500000000, A.D. 2025-Oct-25 00:00:00.0000, 3.204058157927617E+08, 4.378885719042006E+08, -8.576010604076624E+06,
2460980.500000000, A.D. 2025-Nov-01 00:00:00.0000, 3.126627944022216E+08, 4.438666060065842E+08, -8.063233579237401E+06,
2460987.500000000, A.D. 2025-Nov-08 00:00:00.0000, 3.048248794807116E+08, 4.497100455091280E+08, -7.548010101303428E+06,
2460994.500000000, A.D. 2025-Nov-15 00:00:00.0000, 2.968946207260760E+08, 4.554173778970357E+08, -7.030500743420362E+06,
2461001.500000000, A.D. 2025-Nov-22 00:00:00.0000, 2.888745922951252E+08, 4.609871457134078E+08, -6.510866413633883E+06,
2461008.500000000, A.D. 2025-Nov-29 00:00:00.0000, 2.807673924510895E+08, 4.664179477273417E+08, -5.989268302377671E+06,
2461015.500000000, A.D. 2025-Dec-06 00:00:00.0000, 2.725756413619103E+08, 4.717084410967582E+08, -5.465867576243043E+06,
2461022.500000000, A.D. 2025-Dec-13 00:00:00.0000, 2.643019774833149E+08, 4.768573411565012E+08, -4.940825133342505E+06,
2461029.500000000, A.D. 2025-Dec-20 00:00:00.0000, 2.559490560219432E+08, 4.818634198573567E+08, -4.414301657277733E+06,
2461036.500000000, A.D. 2025-Dec-27 00:00:00.0000, 2.475195484071895E+08, 4.867255054483662E+08, -3.886457659720570E+06,
2461043.500000000, A.D. 2026-Jan-03 00:00:00.0000, 2.390161413140482E+08, 4.914424827876295E+08, -3.357453428169072E+06,
2461050.500000000, A.D. 2026-Jan-10 00:00:00.0000, 2.304415353482319E+08, 4.960132936041052E+08, -2.827448944437623E+06,
2461057.500000000, A.D. 2026-Jan-17 00:00:00.0000, 2.217984436277814E+08, 5.004369366205041E+08, -2.296603802685589E+06,
2461064.500000000, A.D. 2026-Jan-24 00:00:00.0000, 2.130895903407455E+08, 5.047124675616351E+08, -1.765077132242531E+06,
2461071.500000000, A.D. 2026-Jan-31 00:00:00.0000, 2.043177093038879E+08, 5.088389990424904E+08, -1.233027527935445E+06,
2461078.500000000, A.D. 2026-Feb-07 00:00:00.0000, 1.954855425853010E+08, 5.128157002804772E+08, -7.006129981749356E+05,
2461085.500000000, A.D. 2026-Feb-14 00:00:00.0000, 1.865958394452348E+08, 5.166417966184035E+08, -1.679909551918209E+05,
2461092.500000000, A.D. 2026-Feb-21 00:00:00.0000, 1.776513559840859E+08, 5.203165694373899E+08, 3.646817642336190E+05,
2461099.500000000, A.D. 2026-Feb-28 00:00:00.0000, 1.686548544144262E+08, 5.238393576148033E+08, 8.972490412946939E+05,
2461106.500000000, A.D. 2026-Mar-07 00:00:00.0000, 1.596090998994517E+08, 5.272095585774845E+08, 1.429555810445458E+06,
2461113.500000000, A.D. 2026-Mar-14 00:00:00.0000, 1.505168577336203E+08, 5.304266266189723E+08, 1.961448142410249E+06,
2461120.500000000, A.D. 2026-Mar-21 00:00:00.0000, 1.413808926499159E+08, 5.334900713814119E+08, 2.492773148247182E+06,
2461127.500000000, A.D. 2026-Mar-28 00:00:00.0000, 1.322039682462131E+08, 5.363994575318549E+08, 3.023378972828150E+06,
2461134.500000000, A.D. 2026-Apr-04 00:00:00.0000, 1.229888459281168E+08, 5.391544046677028E+08, 3.553114854309082E+06,
2461141.500000000, A.D. 2026-Apr-11 00:00:00.0000, 1.137382836430946E+08, 5.417545870918695E+08, 4.081831195207953E+06,
2461148.500000000, A.D. 2026-Apr-18 00:00:00.0000, 1.044550345659887E+08, 5.441997334514203E+08, 4.609379630103558E+06,
2461155.500000000, A.D. 2026-Apr-25 00:00:00.0000, 9.514184578229697E+07, 5.464896262549152E+08, 5.135613087148666E+06,
2461162.500000000, A.D. 2026-May-02 00:00:00.0000, 8.580145700027069E+07, 5.486241012397876E+08, 5.660385838369727E+06,
2461169.500000000, A.D. 2026-May-09 00:00:00.0000, 7.643659941680996E+07, 5.506030465250995E+08, 6.183553522118807E+06,
2461176.500000000, A.D. 2026-May-16 00:00:00.0000, 6.704999511572303E+07, 5.524264016901778E+08, 6.704973114476889E+06,
2461183.500000000, A.D. 2026-May-23 00:00:00.0000, 5.764435705125409E+07, 5.540941578040195E+08, 7.224502928465635E+06,
2461190.500000000, A.D. 2026-May-30 00:00:00.0000, 4.822238754008570E+07, 5.556063587267472E+08, 7.742002857742071E+06,
2461197.500000000, A.D. 2026-Jun-06 00:00:00.0000, 3.878677494530799E+07, 5.569631004095960E+08, 8.257334626299828E+06,
2461204.500000000, A.D. 2026-Jun-13 00:00:00.0000, 2.934019221795720E+07, 5.581645283936663E+08, 8.770361724159926E+06,
2461211.500000000, A.D. 2026-Jun-20 00:00:00.0000, 1.988529679573542E+07, 5.592108364358405E+08, 9.280949313880771E+06,
2461218.500000000, A.D. 2026-Jun-27 00:00:00.0000, 1.042473016133300E+07, 5.601022659229183E+08, 9.788964235584229E+06,
2461225.500000000, A.D. 2026-Jul-04 00:00:00.0000, 9.611170603731540E+05, 5.608391052997121E+08, 1.029427504692632E+07,
2461232.500000000, A.D. 2026-Jul-11 00:00:00.0000, -8.502935367140356E+06, 5.614216893801808E+08, 1.079675206369561E+07,
2461239.500000000, A.D. 2026-Jul-18 00:00:00.0000, -1.796483844918723E+07, 5.618503985684972E+08, 1.129626739439705E+07,
2461246.500000000, A.D. 2026-Jul-25 00:00:00.0000, -2.742202281349803E+07, 5.621256579939343E+08, 1.179269496659413E+07,
2461253.500000000, A.D. 2026-Aug-01 00:00:00.0000, -3.687193914070394E+07, 5.622479365126104E+08, 1.228591053649667E+07,
2461260.500000000, A.D. 2026-Aug-08 00:00:00.0000, -4.631205862416912E+07, 5.622177455413696E+08, 1.277579165903980E+07,
2461267.500000000, A.D. 2026-Aug-15 00:00:00.0000, -5.573987272180104E+07, 5.620356381755505E+08, 1.326221761713144E+07,
2461274.500000000, A.D. 2026-Aug-22 00:00:00.0000, -6.515289296109626E+07, 5.617022098137286E+08, 1.374506947962618E+07,
2461281.500000000, A.D. 2026-Aug-29 00:00:00.0000, -7.454865308614309E+07, 5.612180989178417E+08, 1.422423038573927E+07,
2461288.500000000, A.D. 2026-Sep-05 00:00:00.0000, -8.392471141327058E+07, 5.605839850404223E+08, 1.469958562589169E+07,
$$EOE